[{"OBJECT_NAME":"STARLINK-5763","OBJECT_ID":"2023-065C","EPOCH":"2026-03-09T22:00:01.999584","MEAN_MOTION":15.05557996,"ECCENTRICITY":0.00020078,"INCLINATION":42.9998,"RA_OF_ASC_NODE":209.382,"ARG_OF_PERICENTER":283.9887,"MEAN_ANOMALY":150.795,"EPHEMERIS_TYPE":0,"CLASSIFICATION_TYPE":"U","NORAD_CAT_ID":56505,"ELEMENT_SET_NO":999,"REV_AT_EPOCH":578,"BSTAR":0.0046083415,"MEAN_MOTION_DOT":0.00067934,"MEAN_MOTION_DDOT":0},{"OBJECT_NAME":"STARLING 4","OBJECT_ID":"2023-100A","EPOCH":"2026-03-07T00:40:50.723040","MEAN_MOTION":15.06148396,"ECCENTRICITY":0.00078037,"INCLINATION":99.5115,"RA_OF_ASC_NODE":59.9711,"ARG_OF_PERICENTER":83.0949,"MEAN_ANOMALY":277.1159,"EPHEMERIS_TYPE":0,"CLASSIFICATION_TYPE":"U","NORAD_CAT_ID":57386,"ELEMENT_SET_NO":999,"REV_AT_EPOCH":14452,"BSTAR":5.567556e-6,"MEAN_MOTION_DOT":-9.0e-8,"MEAN_MOTION_DDOT":0}]
